STARLINK-32580          
1 62075U 24217U   26068.52520325  .00031384  00000+0  10673-2 0  9999
2 62075  53.1580 182.0554 0000674  76.1585 283.9491 15.30199409 73577
HERMES-3                
1 63835U 25052BR  26068.93751242  .00020316  00000+0  69958-3 0  9995
2 63835  97.3987 324.6131 0007993 112.9583 247.2502 15.30039785 54863
